HAWK-5A                 
1 52757U 22057AB  26194.28769527  .00011848  00000+0  19663-3 0  9999
2 52757  97.6616 354.8429 0003527 345.9829  14.1325 15.52280149230395
HAWK-6B                 
1 55324U 23011A   26194.21490436  .00002478  00000+0  11087-3 0  9997
2 55324  40.4967 200.2343 0003910 230.1473 129.8993 15.23142556191813
HAWK-6C                 
1 55326U 23011C   26194.21427601  .00002609  00000+0  11631-3 0  9994
2 55326  40.4959 197.0735 0004414 222.1450 137.9020 15.23144916191824
HAWK-6A                 
1 55327U 23011D   26194.21431231  .00002616  00000+0  11660-3 0  9999
2 55327  40.4967 198.7004 0003938 219.5688 140.4834 15.23144014191825
HAWK-7A                 
1 56191U 23054P   26194.24846033  .00003258  00000+0  12335-3 0  9992
2 56191  97.2672  80.9236 0001623 344.3845  15.7344 15.27620219181007
HAWK-7B                 
1 56193U 23054R   26193.98637458  .00003227  00000+0  12220-3 0  9992
2 56193  97.2698  78.9411 0001587  20.8733 339.2571 15.27616354180965
HAWK-7C                 
1 56200U 23054Y   26194.05175859  .00003465  00000+0  13099-3 0  9991
2 56200  97.2677  79.7659 0001126   4.3519 355.7730 15.27620878180979
