OBJECT_NAME,OBJECT_ID,EPOCH,MEAN_MOTION,ECCENTRICITY,INCLINATION,RA_OF_ASC_NODE,ARG_OF_PERICENTER,MEAN_ANOMALY,EPHEMERIS_TYPE,CLASSIFICATION_TYPE,NORAD_CAT_ID,ELEMENT_SET_NO,REV_AT_EPOCH,BSTAR,MEAN_MOTION_DOT,MEAN_MOTION_DDOT
HAWK-5A,2022-057AB,2026-07-13T06:54:16.871328,15.52280149,.00035271,97.6616,354.8429,345.9829,14.1325,0,U,52757,999,23039,.19663279E-3,.11848E-3,0
HAWK-6B,2023-011A,2026-07-13T05:09:27.736704,15.23142556,.00039102,40.4967,200.2343,230.1473,129.8993,0,U,55324,999,19181,.11086608E-3,.2478E-4,0
HAWK-6C,2023-011C,2026-07-13T05:08:33.447264,15.23144916,.0004414,40.4959,197.0735,222.1450,137.9020,0,U,55326,999,19182,.11630719E-3,.2609E-4,0
HAWK-6A,2023-011D,2026-07-13T05:08:36.583584,15.23144014,.00039389,40.4967,198.7004,219.5688,140.4834,0,U,55327,999,19182,.11659745E-3,.2616E-4,0
HAWK-7A,2023-054P,2026-07-13T05:57:46.972512,15.27620219,.00016234,97.2672,80.9236,344.3845,15.7344,0,U,56191,999,18100,.12335102E-3,.3258E-4,0
HAWK-7B,2023-054R,2026-07-12T23:40:22.763712,15.27616354,.00015871,97.2698,78.9411,20.8733,339.2571,0,U,56193,999,18096,.12220327E-3,.3227E-4,0
HAWK-7C,2023-054Y,2026-07-13T01:14:31.942176,15.27620878,.0001126,97.2677,79.7659,4.3519,355.7730,0,U,56200,999,18097,.13099151E-3,.3465E-4,0
